start=new Date('%Y-%m-57T00:00:00.000Z').valueOf();
sats=[{"REF_FRAME":"TEME","SEMIMAJOR_AXIS":"6727.857","RA_OF_ASC_NODE":"353.2581","PERIOD":"91.532","GP_ID":"183187957","CLASSIFICATION_TYPE":"U","TIME_SYSTEM":"UTC","MEAN_MOTION":"15.73213313","ECCENTRICITY":"0.00032380","CENTER_NAME":"EARTH","EPOCH":"2021-08-21T14:00:01.000224","TLE_LINE1":"1 48686U 21044BA  21233.58334491  .00002881  00000-0  24939-4 0  9991","COUNTRY_CODE":"US","MEAN_MOTION_DDOT":"0.0000000000000","OBJECT_TYPE":"PAYLOAD","SITE":"AFETR","TLE_LINE2":"2 48686  53.0480 353.2581 0003238  14.9051  10.7561 15.73213313  3694","EPHEMERIS_TYPE":"0","MEAN_ANOMALY":"10.7561","PERIAPSIS":"347.544","OBJECT_ID":"2021-044BA","FILE":"3100831","APOAPSIS":"351.901","ARG_OF_PERICENTER":"14.9051","MEAN_ELEMENT_THEORY":"SGP4","OBJECT_NAME":"STARLINK-2629","BSTAR":"0.00002493900000","DECAY_DATE":null,"LAUNCH_DATE":"2021-05-26","REV_AT_EPOCH":"369","MEAN_MOTION_DOT":"0.00002881","RCS_SIZE":"LARGE","INCLINATION":"53.0480","NORAD_CAT_ID":"48686","ELEMENT_SET_NO":"999"},{"MEAN_MOTION":"15.73250027","TIME_SYSTEM":"UTC","CENTER_NAME":"EARTH","ECCENTRICITY":"0.00031580","CLASSIFICATION_TYPE":"U","GP_ID":"183187423","PERIOD":"91.530","RA_OF_ASC_NODE":"353.2557","REF_FRAME":"TEME","SEMIMAJOR_AXIS":"6727.753","OBJECT_ID":"2021-044BB","APOAPSIS":"351.742","FILE":"3100831","PERIAPSIS":"347.493","MEAN_ANOMALY":"12.9485","TLE_LINE2":"2 48687  53.0478 353.2557 0003158  13.3768  12.9485 15.73250027  3696","EPHEMERIS_TYPE":"0","SITE":"AFETR","OBJECT_TYPE":"PAYLOAD","MEAN_MOTION_DDOT":"0.0000000000000","COUNTRY_CODE":"US","EPOCH":"2021-08-21T14:00:01.000224","TLE_LINE1":"1 48687U 21044BB  21233.58334491 -.00033742  00000-0 -23631-3 0  9991","LAUNCH_DATE":"2021-05-26","DECAY_DATE":null,"OBJECT_NAME":"STARLINK-2627","BSTAR":"-0.00023631000000","MEAN_ELEMENT_THEORY":"SGP4","ARG_OF_PERICENTER":"13.3768","ELEMENT_SET_NO":"999","INCLINATION":"53.0478","NORAD_CAT_ID":"48687","MEAN_MOTION_DOT":"-0.00033742","RCS_SIZE":"LARGE","REV_AT_EPOCH":"369"},{"REV_AT_EPOCH":"369","INCLINATION":"53.0478","NORAD_CAT_ID":"48688","ELEMENT_SET_NO":"999","MEAN_MOTION_DOT":"0.00002129","RCS_SIZE":"LARGE","MEAN_ELEMENT_THEORY":"SGP4","OBJECT_NAME":"STARLINK-2742","BSTAR":"0.00001959000000","ARG_OF_PERICENTER":"9.9557","LAUNCH_DATE":"2021-05-26","DECAY_DATE":null,"MEAN_MOTION_DDOT":"0.0000000000000","SITE":"AFETR","OBJECT_TYPE":"PAYLOAD","EPOCH":"2021-08-21T14:00:01.000224","TLE_LINE1":"1 48688U 21044BC  21233.58334491  .00002129  00000-0  19590-4 0  9995","COUNTRY_CODE":"US","PERIAPSIS":"347.192","OBJECT_ID":"2021-044BC","APOAPSIS":"352.190","FILE":"3100831","TLE_LINE2":"2 48688  53.0478 353.2542 0003714   9.9557  16.9642 15.73224192  3699","EPHEMERIS_TYPE":"0","MEAN_ANOMALY":"16.9642","PERIOD":"91.532","RA_OF_ASC_NODE":"353.2542","REF_FRAME":"TEME","SEMIMAJOR_AXIS":"6727.826","CLASSIFICATION_TYPE":"U","MEAN_MOTION":"15.73224192","TIME_SYSTEM":"UTC","ECCENTRICITY":"0.00037140","CENTER_NAME":"EARTH","GP_ID":"183187513"},{"NORAD_CAT_ID":"48689","INCLINATION":"53.0479","ELEMENT_SET_NO":"999","RCS_SIZE":"LARGE","MEAN_MOTION_DOT":"0.00003609","REV_AT_EPOCH":"369","LAUNCH_DATE":"2021-05-26","DECAY_DATE":null,"MEAN_ELEMENT_THEORY":"SGP4","OBJECT_NAME":"STARLINK-2617","BSTAR":"0.00003013400000","ARG_OF_PERICENTER":"12.3556","PERIAPSIS":"347.390","FILE":"3100831","APOAPSIS":"352.103","OBJECT_ID":"2021-044BD","EPHEMERIS_TYPE":"0","TLE_LINE2":"2 48689  53.0479 353.2545 0003503  12.3556  15.2337 15.73204819  3694","MEAN_ANOMALY":"15.2337","MEAN_MOTION_DDOT":"0.0000000000000","OBJECT_TYPE":"PAYLOAD","SITE":"AFETR","TLE_LINE1":"1 48689U 21044BD  21233.58334491  .00003609  00000-0  30134-4 0  9997","EPOCH":"2021-08-21T14:00:01.000224","COUNTRY_CODE":"US","CLASSIFICATION_TYPE":"U","CENTER_NAME":"EARTH","ECCENTRICITY":"0.00035030","MEAN_MOTION":"15.73204819","TIME_SYSTEM":"UTC","GP_ID":"183188047","RA_OF_ASC_NODE":"353.2545","PERIOD":"91.533","SEMIMAJOR_AXIS":"6727.881","REF_FRAME":"TEME"},{"RA_OF_ASC_NODE":"353.2570","PERIOD":"91.532","REF_FRAME":"TEME","SEMIMAJOR_AXIS":"6727.849","TIME_SYSTEM":"UTC","MEAN_MOTION":"15.73216254","ECCENTRICITY":"0.00031700","CENTER_NAME":"EARTH","CLASSIFICATION_TYPE":"U","GP_ID":"183187603","OBJECT_TYPE":"PAYLOAD","SITE":"AFETR","MEAN_MOTION_DDOT":"0.0000000000000","COUNTRY_CODE":"US","TLE_LINE1":"1 48690U 21044BE  21233.58334491 -.00033238  00000-0 -23304-3 0  9992","EPOCH":"2021-08-21T14:00:01.000224","OBJECT_ID":"2021-044BE","FILE":"3100831","APOAPSIS":"351.847","PERIAPSIS":"347.581","MEAN_ANOMALY":"10.0877","TLE_LINE2":"2 48690  53.0484 353.2570 0003170  18.1713  10.0877 15.73216254  3697","EPHEMERIS_TYPE":"0","OBJECT_NAME":"STARLINK-2740","BSTAR":"-0.00023304000000","MEAN_ELEMENT_THEORY":"SGP4","ARG_OF_PERICENTER":"18.1713","LAUNCH_DATE":"2021-05-26","DECAY_DATE":null,"REV_AT_EPOCH":"369","ELEMENT_SET_NO":"999","INCLINATION":"53.0484","NORAD_CAT_ID":"48690","RCS_SIZE":"LARGE","MEAN_MOTION_DOT":"-0.00033238"},{"RCS_SIZE":"LARGE","MEAN_MOTION_DOT":"0.00001012","INCLINATION":"53.0480","NORAD_CAT_ID":"48691","ELEMENT_SET_NO":"999","REV_AT_EPOCH":"369","DECAY_DATE":null,"LAUNCH_DATE":"2021-05-26","ARG_OF_PERICENTER":"10.6725","MEAN_ELEMENT_THEORY":"SGP4","BSTAR":"0.00001165900000","OBJECT_NAME":"STARLINK-2750","TLE_LINE2":"2 48691  53.0480 353.2520 0003690  10.6725  18.2376 15.73199345  3691","EPHEMERIS_TYPE":"0","MEAN_ANOMALY":"18.2376","PERIAPSIS":"347.279","OBJECT_ID":"2021-044BF","APOAPSIS":"352.245","FILE":"3100831","TLE_LINE1":"1 48691U 21044BF  21233.58334491  .00001012  00000-0  11659-4 0  9997","EPOCH":"2021-08-21T14:00:01.000224","COUNTRY_CODE":"US","MEAN_MOTION_DDOT":"0.0000000000000","SITE":"AFETR","OBJECT_TYPE":"PAYLOAD","GP_ID":"183187777","CLASSIFICATION_TYPE":"U","MEAN_MOTION":"15.73199345","TIME_SYSTEM":"UTC","ECCENTRICITY":"0.00036900","CENTER_NAME":"EARTH","REF_FRAME":"TEME","SEMIMAJOR_AXIS":"6727.897","PERIOD":"91.533","RA_OF_ASC_NODE":"353.2520"},{"COUNTRY_CODE":"US","TLE_LINE1":"1 48692U 21044BG  21233.58334491 -.00027867  00000-0 -19422-3 0  9991","EPOCH":"2021-08-21T14:00:01.000224","SITE":"AFETR","OBJECT_TYPE":"PAYLOAD","MEAN_MOTION_DDOT":"0.0000000000000","MEAN_ANOMALY":"24.4412","EPHEMERIS_TYPE":"0","TLE_LINE2":"2 48692  53.0480 353.2501 0003798   5.0638  24.4412 15.73249878 14533","APOAPSIS":"352.173","FILE":"3100831","OBJECT_ID":"2021-044BG","PERIAPSIS":"347.063","SEMIMAJOR_AXIS":"6727.753","REF_FRAME":"TEME","RA_OF_ASC_NODE":"353.2501","PERIOD":"91.530","GP_ID":"183187868","CENTER_NAME":"EARTH","ECCENTRICITY":"0.00037980","TIME_SYSTEM":"UTC","MEAN_MOTION":"15.73249878","CLASSIFICATION_TYPE":"U","REV_AT_EPOCH":"1453","MEAN_MOTION_DOT":"-0.00027867","RCS_SIZE":"LARGE","ELEMENT_SET_NO":"999","NORAD_CAT_ID":"48692","INCLINATION":"53.0480","ARG_OF_PERICENTER":"5.0638","BSTAR":"-0.00019422000000","OBJECT_NAME":"STARLINK-2752","MEAN_ELEMENT_THEORY":"SGP4","DECAY_DATE":null,"LAUNCH_DATE":"2021-05-26"},{"DECAY_DATE":null,"LAUNCH_DATE":"2021-05-26","ARG_OF_PERICENTER":"6.1279","OBJECT_NAME":"STARLINK-2618","BSTAR":"-0.00085987000000","MEAN_ELEMENT_THEORY":"SGP4","MEAN_MOTION_DOT":"-0.00120089","RCS_SIZE":"LARGE","ELEMENT_SET_NO":"999","NORAD_CAT_ID":"48693","INCLINATION":"53.0482","REV_AT_EPOCH":"369","GP_ID":"183187694","ECCENTRICITY":"0.00038830","CENTER_NAME":"EARTH","TIME_SYSTEM":"UTC","MEAN_MOTION":"15.73279897","CLASSIFICATION_TYPE":"U","SEMIMAJOR_AXIS":"6727.667","REF_FRAME":"TEME","PERIOD":"91.529","RA_OF_ASC_NODE":"353.2508","MEAN_ANOMALY":"23.9965","EPHEMERIS_TYPE":"0","TLE_LINE2":"2 48693  53.0482 353.2508 0003883   6.1279  23.9965 15.73279897  3697","FILE":"3100831","APOAPSIS":"352.145","OBJECT_ID":"2021-044BH","PERIAPSIS":"346.920","COUNTRY_CODE":"US","EPOCH":"2021-08-21T14:00:01.000224","TLE_LINE1":"1 48693U 21044BH  21233.58334491 -.00120089  00000-0 -85987-3 0  9991","SITE":"AFETR","OBJECT_TYPE":"PAYLOAD","MEAN_MOTION_DDOT":"0.0000000000000"},{"ARG_OF_PERICENTER":"16.7642","OBJECT_NAME":"STARLINK-2748","BSTAR":"-0.00008393300000","MEAN_ELEMENT_THEORY":"SGP4","DECAY_DATE":null,"LAUNCH_DATE":"2021-05-26","REV_AT_EPOCH":"1453","MEAN_MOTION_DOT":"-0.00012396","RCS_SIZE":"LARGE","ELEMENT_SET_NO":"999","NORAD_CAT_ID":"48694","INCLINATION":"53.0479","SEMIMAJOR_AXIS":"6727.876","REF_FRAME":"TEME","PERIOD":"91.533","RA_OF_ASC_NODE":"353.2463","GP_ID":"183187958","ECCENTRICITY":"0.00034420","CENTER_NAME":"EARTH","TIME_SYSTEM":"UTC","MEAN_MOTION":"15.73206612","CLASSIFICATION_TYPE":"U","COUNTRY_CODE":"US","TLE_LINE1":"1 48694U 21044BJ  21233.58334491 -.00012396  00000-0 -83933-4 0  9993","EPOCH":"2021-08-21T14:00:01.000224","SITE":"AFETR","OBJECT_TYPE":"PAYLOAD","MEAN_MOTION_DDOT":"0.0000000000000","MEAN_ANOMALY":"13.9910","EPHEMERIS_TYPE":"0","TLE_LINE2":"2 48694  53.0479 353.2463 0003442  16.7642  13.9910 15.73206612 14535","APOAPSIS":"352.057","FILE":"3100831","OBJECT_ID":"2021-044BJ","PERIAPSIS":"347.426"},{"DECAY_DATE":null,"LAUNCH_DATE":"2021-05-26","ARG_OF_PERICENTER":"15.0443","BSTAR":"-0.00035467000000","OBJECT_NAME":"STARLINK-2616","MEAN_ELEMENT_THEORY":"SGP4","RCS_SIZE":"LARGE","MEAN_MOTION_DOT":"-0.00050154","ELEMENT_SET_NO":"999","INCLINATION":"53.0483","NORAD_CAT_ID":"48695","REV_AT_EPOCH":"369","GP_ID":"183187424","MEAN_MOTION":"15.73214005","TIME_SYSTEM":"UTC","ECCENTRICITY":"0.00029630","CENTER_NAME":"EARTH","CLASSIFICATION_TYPE":"U","REF_FRAME":"TEME","SEMIMAJOR_AXIS":"6727.855","PERIOD":"91.532","RA_OF_ASC_NODE":"353.2483","MEAN_ANOMALY":"16.4079","TLE_LINE2":"2 48695  53.0483 353.2483 0002963  15.0443  16.4079 15.73214005  3695","EPHEMERIS_TYPE":"0","OBJECT_ID":"2021-044BK","APOAPSIS":"351.714","FILE":"3100831","PERIAPSIS":"347.727","COUNTRY_CODE":"US","TLE_LINE1":"1 48695U 21044BK  21233.58334491 -.00050154  00000-0 -35467-3 0  9996","EPOCH":"2021-08-21T14:00:01.000224","SITE":"AFETR","OBJECT_TYPE":"PAYLOAD","MEAN_MOTION_DDOT":"0.0000000000000"}];
